[{"OBJECT_NAME":"OBJECT J","OBJECT_ID":"2025-155J","EPOCH":"2026-03-09T22:09:22.347648","MEAN_MOTION":15.2758258,"ECCENTRICITY":0.00088188,"INCLINATION":97.4475,"RA_OF_ASC_NODE":37.3123,"ARG_OF_PERICENTER":150.071,"MEAN_ANOMALY":210.1035,"EPHEMERIS_TYPE":0,"CLASSIFICATION_TYPE":"U","NORAD_CAT_ID":64884,"ELEMENT_SET_NO":999,"REV_AT_EPOCH":6559,"BSTAR":0.00051444498,"MEAN_MOTION_DOT":0.00013827,"MEAN_MOTION_DDOT":0},{"OBJECT_NAME":"STARLINK-35588","OBJECT_ID":"2025-259C","EPOCH":"2026-03-09T20:14:27.208608","MEAN_MOTION":15.27589023,"ECCENTRICITY":0.00022179,"INCLINATION":43.0007,"RA_OF_ASC_NODE":273.5851,"ARG_OF_PERICENTER":275.2153,"MEAN_ANOMALY":84.8446,"EPHEMERIS_TYPE":0,"CLASSIFICATION_TYPE":"U","NORAD_CAT_ID":66424,"ELEMENT_SET_NO":999,"REV_AT_EPOCH":1951,"BSTAR":0.0011115386,"MEAN_MOTION_DOT":0.00030461,"MEAN_MOTION_DDOT":0}]
